SBSS (USA 216)          
1 37168U 10048A   26068.88624904  .00004946  00000+0  24191-3 0  9993
2 37168  97.7474 312.3885 0082264 184.8326 306.5835 15.15724210837421
STARLINK-32380          
1 61069U 24164V   26068.34214656  .00000708  00000+0  36030-4 0  9992
2 61069  53.1609  92.7793 0001248  75.6535 284.4605 15.30194515 83421
